{"fetched_at":"2026-07-12T07:15:20.031Z","source":"https://celestrak.org/NORAD/elements/gp.php?GROUP=oneweb&FORMAT=JSON","constellation":"oneweb","records":[{"OBJECT_NAME":"ONEWEB-0176","OBJECT_ID":"2021-031A","EPOCH":"2026-07-11T16:32:02.529888","CLASSIFICATION_TYPE":"U","MEAN_MOTION":13.14501965,"ECCENTRICITY":0.00021563,"INCLINATION":87.8967,"RA_OF_ASC_NODE":284.8176,"ARG_OF_PERICENTER":101.4223,"MEAN_ANOMALY":258.7149,"EPHEMERIS_TYPE":0,"NORAD_CAT_ID":48210,"ELEMENT_SET_NO":999,"REV_AT_EPOCH":25153,"BSTAR":-0.00013104584,"MEAN_MOTION_DOT":-3.6e-7,"MEAN_MOTION_DDOT":0},{"OBJECT_NAME":"ONEWEB-0184","OBJECT_ID":"2021-031B","EPOCH":"2026-07-11T19:32:26.378880","CLASSIFICATION_TYPE":"U","MEAN_MOTION":13.14502752,"ECCENTRICITY":0.00024656,"INCLINATION":87.8976,"RA_OF_ASC_NODE":284.7946,"ARG_OF_PERICENTER":118.4801,"MEAN_ANOMALY":241.6577,"EPHEMERIS_TYPE":0,"NORAD_CAT_ID":48211,"ELEMENT_SET_NO":999,"REV_AT_EPOCH":25152,"BSTAR":-0.00031433674,"MEAN_MOTION_DOT":-0.00000104,"MEAN_MOTION_DDOT":0},{"OBJECT_NAME":"ONEWEB-0179","OBJECT_ID":"2021-031C","EPOCH":"2026-07-11T19:17:09.490848","CLASSIFICATION_TYPE":"U","MEAN_MOTION":14.25571598,"ECCENTRICITY":0.02213868,"INCLINATION":87.8996,"RA_OF_ASC_NODE":281.0478,"ARG_OF_PERICENTER":176.4996,"MEAN_ANOMALY":183.7812,"EPHEMERIS_TYPE":0,"NORAD_CAT_ID":48212,"ELEMENT_SET_NO":999,"REV_AT_EPOCH":25255,"BSTAR":0.000055756524,"MEAN_MOTION_DOT":0.00000191,"MEAN_MOTION_DDOT":0},{"OBJECT_NAME":"ONEWEB-0180","OBJECT_ID":"2021-031D","EPOCH":"2026-07-11T17:47:24.187488","CLASSIFICATION_TYPE":"U","MEAN_MOTION":13.14503309,"ECCENTRICITY":0.00024969,"INCLINATION":87.8979,"RA_OF_ASC_NODE":284.8057,"ARG_OF_PERICENTER":99.5822,"MEAN_ANOMALY":260.559,"EPHEMERIS_TYPE":0,"NORAD_CAT_ID":48213,"ELEMENT_SET_NO":999,"REV_AT_EPOCH":25144,"BSTAR":-0.00036730414,"MEAN_MOTION_DOT":-0.00000123,"MEAN_MOTION_DDOT":0},{"OBJECT_NAME":"ONEWEB-0218","OBJECT_ID":"2021-031E","EPOCH":"2026-07-11T18:19:22.121472","CLASSIFICATION_TYPE":"U","MEAN_MOTION":13.14503442,"ECCENTRICITY":0.00028,"INCLINATION":87.8977,"RA_OF_ASC_NODE":284.8011,"ARG_OF_PERICENTER":112.5448,"MEAN_ANOMALY":247.5978,"EPHEMERIS_TYPE":0,"NORAD_CAT_ID":48214,"ELEMENT_SET_NO":999,"REV_AT_EPOCH":25160,"BSTAR":-0.00017048365,"MEAN_MOTION_DOT":-5e-7,"MEAN_MOTION_DDOT":0},{"OBJECT_NAME":"ONEWEB-0209","OBJECT_ID":"2021-031F","EPOCH":"2026-07-11T18:03:23.566176","CLASSIFICATION_TYPE":"U","MEAN_MOTION":13.14503466,"ECCENTRICITY":0.0002275,"INCLINATION":87.8968,"RA_OF_ASC_NODE":284.8177,"ARG_OF_PERICENTER":96.5306,"MEAN_ANOMALY":263.6083,"EPHEMERIS_TYPE":0,"NORAD_CAT_ID":48215,"ELEMENT_SET_NO":999,"REV_AT_EPOCH":25160,"BSTAR":-0.0004988083,"MEAN_MOTION_DOT":-0.00000172,"MEAN_MOTION_DDOT":0},{"OBJECT_NAME":"ONEWEB-0198","OBJECT_ID":"2021-031G","EPOCH":"2026-07-11T19:30:21.656160","CLASSIFICATION_TYPE":"U","MEAN_MOTION":13.14502934,"ECCENTRICITY":0.00025006,"INCLINATION":87.8961,"RA_OF_ASC_NODE":284.8027,"ARG_OF_PERICENTER":101.1601,"MEAN_ANOMALY":258.981,"EPHEMERIS_TYPE":0,"NORAD_CAT_ID":48216,"ELEMENT_SET_NO":999,"REV_AT_EPOCH":25172,"BSTAR":-0.00033783504,"MEAN_MOTION_DOT":-0.00000112,"MEAN_MOTION_DDOT":0},{"OBJECT_NAME":"ONEWEB-0189","OBJECT_ID":"2021-031H","EPOCH":"2026-07-11T17:58:49.051776","CLASSIFICATION_TYPE":"U","MEAN_MOTION":13.14502069,"ECCENTRICITY":0.00024038,"INCLINATION":87.8972,"RA_OF_ASC_NODE":284.8047,"ARG_OF_PERICENTER":101.91,"MEAN_ANOMALY":258.2299,"EPHEMERIS_TYPE":0,"NORAD_CAT_ID":48217,"ELEMENT_SET_NO":999,"REV_AT_EPOCH":25145,"BSTAR":-0.0006741106,"MEAN_MOTION_DOT":-0.00000237,"MEAN_MOTION_DDOT":0},{"OBJECT_NAME":"ONEWEB-0196","OBJECT_ID":"2021-031J","EPOCH":"2026-07-11T19:16:27.558336","CLASSIFICATION_TYPE":"U","MEAN_MOTION":13.14502362,"ECCENTRICITY":0.00021269,"INCLINATION":87.8972,"RA_OF_ASC_NODE":284.8024,"ARG_OF_PERICENTER":99.2157,"MEAN_ANOMALY":260.9213,"EPHEMERIS_TYPE":0,"NORAD_CAT_ID":48218,"ELEMENT_SET_NO":999,"REV_AT_EPOCH":25146,"BSTAR":-0.000013266077,"MEAN_MOTION_DOT":8e-8,"MEAN_MOTION_DDOT":0},{"OBJECT_NAME":"ONEWEB-0183","OBJECT_ID":"2021-031K","EPOCH":"2026-07-11T18:39:55.251648","CLASSIFICATION_TYPE":"U","MEAN_MOTION":13.1450201,"ECCENTRICITY":0.0002008,"INCLINATION":87.8968,"RA_OF_ASC_NODE":284.8053,"ARG_OF_PERICENTER":93.2374,"MEAN_ANOMALY":266.8986,"EPHEMERIS_TYPE":0,"NORAD_CAT_ID":48219,"ELEMENT_SET_NO":999,"REV_AT_EPOCH":25155,"BSTAR":0.00046358,"MEAN_MOTION_DOT":0.00000185,"MEAN_MOTION_DDOT":0},{"OBJECT_NAME":"ONEWEB-0185","OBJECT_ID":"2021-031L","EPOCH":"2026-07-11T19:17:34.854432","CLASSIFICATION_TYPE":"U","MEAN_MOTION":13.14503384,"ECCENTRICITY":0.00022782,"INCLINATION":87.8976,"RA_OF_ASC_NODE":284.7954,"ARG_OF_PERICENTER":89.4532,"MEAN_ANOMALY":270.6859,"EPHEMERIS_TYPE":0,"NORAD_CAT_ID":48220,"ELEMENT_SET_NO":999,"REV_AT_EPOCH":25148,"BSTAR":-0.000085026701,"MEAN_MOTION_DOT":-1.9e-7,"MEAN_MOTION_DDOT":0},{"OBJECT_NAME":"ONEWEB-0187","OBJECT_ID":"2021-031M","EPOCH":"2026-07-11T18:48:51.160608","CLASSIFICATION_TYPE":"U","MEAN_MOTION":13.14502652,"ECCENTRICITY":0.00021388,"INCLINATION":87.8966,"RA_OF_ASC_NODE":284.8142,"ARG_OF_PERICENTER":101.7933,"MEAN_ANOMALY":258.3437,"EPHEMERIS_TYPE":0,"NORAD_CAT_ID":48221,"ELEMENT_SET_NO":999,"REV_AT_EPOCH":25149,"BSTAR":0.00047448167,"MEAN_MOTION_DOT":0.00000189,"MEAN_MOTION_DDOT":0},{"OBJECT_NAME":"ONEWEB-0192","OBJECT_ID":"2021-031N","EPOCH":"2026-07-11T18:05:40.183584","CLASSIFICATION_TYPE":"U","MEAN_MOTION":13.14502893,"ECCENTRICITY":0.00021523,"INCLINATION":87.8968,"RA_OF_ASC_NODE":284.8095,"ARG_OF_PERICENTER":101.4787,"MEAN_ANOMALY":258.6584,"EPHEMERIS_TYPE":0,"NORAD_CAT_ID":48222,"ELEMENT_SET_NO":999,"REV_AT_EPOCH":25140,"BSTAR":-0.00059058444,"MEAN_MOTION_DOT":-0.00000206,"MEAN_MOTION_DDOT":0},{"OBJECT_NAME":"ONEWEB-0219","OBJECT_ID":"2021-031P","EPOCH":"2026-07-11T19:25:34.429728","CLASSIFICATION_TYPE":"U","MEAN_MOTION":13.14503748,"ECCENTRICITY":0.00021744,"INCLINATION":87.8981,"RA_OF_ASC_NODE":284.7902,"ARG_OF_PERICENTER":97.0196,"MEAN_ANOMALY":263.1181,"EPHEMERIS_TYPE":0,"NORAD_CAT_ID":48223,"ELEMENT_SET_NO":999,"REV_AT_EPOCH":25161,"BSTAR":-0.0001762682,"MEAN_MOTION_DOT":-5.3e-7,"MEAN_MOTION_DDOT":0},{"OBJECT_NAME":"ONEWEB-0202","OBJECT_ID":"2021-031Q","EPOCH":"2026-07-11T18:58:12.296640","CLASSIFICATION_TYPE":"U","MEAN_MOTION":13.14498033,"ECCENTRICITY":0.00028068,"INCLINATION":87.8984,"RA_OF_ASC_NODE":284.8081,"ARG_OF_PERICENTER":109.2422,"MEAN_ANOMALY":250.9011,"EPHEMERIS_TYPE":0,"NORAD_CAT_ID":48224,"ELEMENT_SET_NO":999,"REV_AT_EPOCH":25159,"BSTAR":-0.0009109794,"MEAN_MOTION_DOT":-0.00000325,"MEAN_MOTION_DDOT":0},{"OBJECT_NAME":"ONEWEB-0204","OBJECT_ID":"2021-031R","EPOCH":"2026-07-11T17:57:39.465216","CLASSIFICATION_TYPE":"U","MEAN_MOTION":13.14499305,"ECCENTRICITY":0.00018645,"INCLINATION":87.8973,"RA_OF_ASC_NODE":284.8101,"ARG_OF_PERICENTER":87.5526,"MEAN_ANOMALY":272.5818,"EPHEMERIS_TYPE":0,"NORAD_CAT_ID":48225,"ELEMENT_SET_NO":999,"REV_AT_EPOCH":25148,"BSTAR":-0.00066228936,"MEAN_MOTION_DOT":-0.00000233,"MEAN_MOTION_DDOT":0}]}
